{"type": "FeatureCollection", "features": [ {"type": "Feature", "properties": {"norad_id": 39019, "name": "PLEIADES 1B", "group": "resource", "lat": 4.758377398008195, "lon": 69.12180352633779, "alt_km": 700.0121955393124, "timestamp": "2025-12-23T07:45:09.053540+00:00", "meta": {"OBJECT_NAME": "PLEIADES 1B", "OBJECT_ID": "2012-068A", "EPOCH": "2025-12-22T23:29:54.123360", "MEAN_MOTION": 14.585607, "ECCENTRICITY": 0.00011782, "INCLINATION": 98.1786, "RA_OF_ASC_NODE": 69.4693, "ARG_OF_PERICENTER": 85.3392, "MEAN_ANOMALY": 274.7942, "EPHEMERIS_TYPE": 0, "CLASSIFICATION_TYPE": "U", "NORAD_CAT_ID": 39019, "ELEMENT_SET_NO": 999, "REV_AT_EPOCH": 69516, "BSTAR": 5.0704297e-05, "MEAN_MOTION_DOT": 1.9e-06, "MEAN_MOTION_DDOT": 0}, "tle": {"line1": "1 39019U 12068A   25356.97909865  .00000190  00000+0  50704-4 0  9992", "line2": "2 39019  98.1786  69.4693 0001178  85.3392 274.7942 14.58560700695165"}}, "geometry": {"type": "Point", "coordinates": [69.12180352633779, 4.758377398008195]}}, {"type": "Feature", "properties": {"norad_id": 39030, "name": "GOKTURK 2", "group": "resource", "lat": 42.64221984415602, "lon": 25.60205512539112, "alt_km": 639.8840992864698, "timestamp": "2025-12-23T07:45:09.053550+00:00", "meta": {"OBJECT_NAME": "GOKTURK 2", "OBJECT_ID": "2012-073A", "EPOCH": "2025-12-22T22:59:44.758752", "MEAN_MOTION": 14.75305393, "ECCENTRICITY": 0.0001355, "INCLINATION": 97.6883, "RA_OF_ASC_NODE": 198.109, "ARG_OF_PERICENTER": 106.6133, "MEAN_ANOMALY": 253.5226, "EPHEMERIS_TYPE": 0, "CLASSIFICATION_TYPE": "U", "NORAD_CAT_ID": 39030, "ELEMENT_SET_NO": 999, "REV_AT_EPOCH": 69852, "BSTAR": 0.00013033963, "MEAN_MOTION_DOT": 8.36e-06, "MEAN_MOTION_DDOT": 0}, "tle": {"line1": "1 39030U 12073A   25356.95815693  .00000836  00000+0  13034-3 0  9995", "line2": "2 39030  97.6883 198.1090 0001355 106.6133 253.5226 14.75305393698525"}}, "geometry": {"type": "Point", "coordinates": [25.60205512539112, 42.64221984415602]}}, {"type": "Feature", "properties": {"norad_id": 39084, "name": "LANDSAT 8", "group": "resource", "lat": 58.897998185385866, "lon": -100.92164292944382, "alt_km": 696.1536210241047, "timestamp": "2025-12-23T07:45:09.053560+00:00", "meta": {"OBJECT_NAME": "LANDSAT 8", "OBJECT_ID": "2013-008A", "EPOCH": "2025-12-22T21:18:54.572832", "MEAN_MOTION": 14.57112583, "ECCENTRICITY": 0.00010648, "INCLINATION": 98.2058, "RA_OF_ASC_NODE": 64.8112, "ARG_OF_PERICENTER": 91.9678, "MEAN_ANOMALY": 268.1642, "EPHEMERIS_TYPE": 0, "CLASSIFICATION_TYPE": "U", "NORAD_CAT_ID": 39084, "ELEMENT_SET_NO": 999, "REV_AT_EPOCH": 67222, "BSTAR": 0.00010476715, "MEAN_MOTION_DOT": 4.27e-06, "MEAN_MOTION_DDOT": 0}, "tle": {"line1": "1 39084U 13008A   25356.88813163  .00000427  00000+0  10477-3 0  9999", "line2": "2 39084  98.2058  64.8112 0001064  91.9678 268.1642 14.57112583672226"}}, "geometry": {"type": "Point", "coordinates": [-100.92164292944382, 58.897998185385866]}}, {"type": "Feature", "properties": {"norad_id": 39086, "name": "SARAL", "group": "resource", "lat": -76.42997488349671, "lon": -37.44199866602186, "alt_km": 791.9265537908586, "timestamp": "2025-12-23T07:45:09.053570+00:00", "meta": {"OBJECT_NAME": "SARAL", "OBJECT_ID": "2013-009A", "EPOCH": "2025-12-22T22:09:55.101888", "MEAN_MOTION": 14.32760455, "ECCENTRICITY": 0.00029653, "INCLINATION": 98.5503, "RA_OF_ASC_NODE": 180.721, "ARG_OF_PERICENTER": 89.6587, "MEAN_ANOMALY": 270.4937, "EPHEMERIS_TYPE": 0, "CLASSIFICATION_TYPE": "U", "NORAD_CAT_ID": 39086, "ELEMENT_SET_NO": 999, "REV_AT_EPOCH": 67036, "BSTAR": 5.9203338e-05, "MEAN_MOTION_DOT": 1.18e-06, "MEAN_MOTION_DDOT": 0}, "tle": {"line1": "1 39086U 13009A   25356.92355442  .00000118  00000+0  59203-4 0  9996", "line2": "2 39086  98.5503 180.7210 0002965  89.6587 270.4937 14.32760455670363"}}, "geometry": {"type": "Point", "coordinates": [-37.44199866602186, -76.42997488349671]}}, {"type": "Feature", "properties": {"norad_id": 39150, "name": "GAOFEN-1", "group": "resource", "lat": -78.49928328129654, "lon": -155.4588902334892, "alt_km": 659.0668101554757, "timestamp": "2025-12-23T07:45:09.053580+00:00", "meta": {"OBJECT_NAME": "GAOFEN-1", "OBJECT_ID": "2013-018A", "EPOCH": "2025-12-22T22:26:24.349056", "MEAN_MOTION": 14.76495177, "ECCENTRICITY": 0.00184718, "INCLINATION": 97.9318, "RA_OF_ASC_NODE": 67.4138, "ARG_OF_PERICENTER": 112.0534, "MEAN_ANOMALY": 248.264, "EPHEMERIS_TYPE": 0, "CLASSIFICATION_TYPE": "U", "NORAD_CAT_ID": 39150, "ELEMENT_SET_NO": 999, "REV_AT_EPOCH": 68223, "BSTAR": 5.4891761e-05, "MEAN_MOTION_DOT": 3.32e-06, "MEAN_MOTION_DDOT": 0}, "tle": {"line1": "1 39150U 13018A   25356.93500404  .00000332  00000+0  54892-4 0  9996", "line2": "2 39150  97.9318  67.4138 0018471 112.0534 248.2640 14.76495177682231"}}, "geometry": {"type": "Point", "coordinates": [-155.4588902334892, -78.49928328129654]}}, {"type": "Feature", "properties": {"norad_id": 39160, "name": "VNREDSAT 1", "group": "resource", "lat": -62.069608711788455, "lon": -143.0287165846742, "alt_km": 685.2546039877807, "timestamp": "2025-12-23T07:45:09.053590+00:00", "meta": {"OBJECT_NAME": "VNREDSAT 1", "OBJECT_ID": "2013-021B", "EPOCH": "2025-12-22T22:26:59.602848", "MEAN_MOTION": 14.64936625, "ECCENTRICITY": 0.00011949, "INCLINATION": 97.936, "RA_OF_ASC_NODE": 51.8527, "ARG_OF_PERICENTER": 83.2127, "MEAN_ANOMALY": 276.9212, "EPHEMERIS_TYPE": 0, "CLASSIFICATION_TYPE": "U", "NORAD_CAT_ID": 39160, "ELEMENT_SET_NO": 999, "REV_AT_EPOCH": 67448, "BSTAR": 0.0001184955, "MEAN_MOTION_DOT": 5.88e-06, "MEAN_MOTION_DDOT": 0}, "tle": {"line1": "1 39160U 13021B   25356.93541207  .00000588  00000+0  11850-3 0  9996", "line2": "2 39160  97.9360  51.8527 0001194  83.2127 276.9212 14.64936625674485"}}, "geometry": {"type": "Point", "coordinates": [-143.0287165846742, -62.069608711788455]}}, {"type": "Feature", "properties": {"norad_id": 39227, "name": "ARIRANG-5 (KOMPSAT-5)", "group": "resource", "lat": 27.32625483974234, "lon": 177.51137666194694, "alt_km": 549.4557556368127, "timestamp": "2025-12-23T07:45:09.053600+00:00", "meta": {"OBJECT_NAME": "ARIRANG-5 (KOMPSAT-5)", "OBJECT_ID": "2013-042A", "EPOCH": "2025-12-22T23:38:58.354368", "MEAN_MOTION": 15.0454936, "ECCENTRICITY": 0.00034572, "INCLINATION": 97.6158, "RA_OF_ASC_NODE": 181.1431, "ARG_OF_PERICENTER": 33.2669, "MEAN_ANOMALY": 326.8774, "EPHEMERIS_TYPE": 0, "CLASSIFICATION_TYPE": "U", "NORAD_CAT_ID": 39227, "ELEMENT_SET_NO": 999, "REV_AT_EPOCH": 67736, "BSTAR": 0.00016158405, "MEAN_MOTION_DOT": 2.204e-05, "MEAN_MOTION_DDOT": 0}, "tle": {"line1": "1 39227U 13042A   25356.98539762  .00002204  00000+0  16158-3 0  9994", "line2": "2 39227  97.6158 181.1431 0003457  33.2669 326.8774 15.04549360677361"}}, "geometry": {"type": "Point", "coordinates": [177.51137666194694, 27.32625483974234]}}, {"type": "Feature", "properties": {"norad_id": 39418, "name": "SKYSAT-A", "group": "resource", "lat": -48.13922740664717, "lon": 55.560507742501606, "alt_km": 543.701532961587, "timestamp": "2025-12-23T07:45:09.053610+00:00", "meta": {"OBJECT_NAME": "SKYSAT-A", "OBJECT_ID": "2013-066C", "EPOCH": "2025-12-22T01:47:01.235904", "MEAN_MOTION": 15.11668448, "ECCENTRICITY": 0.00213841, "INCLINATION": 97.4091, "RA_OF_ASC_NODE": 45.9992, "ARG_OF_PERICENTER": 202.7866, "MEAN_ANOMALY": 157.2418, "EPHEMERIS_TYPE": 0, "CLASSIFICATION_TYPE": "U", "NORAD_CAT_ID": 39418, "ELEMENT_SET_NO": 999, "REV_AT_EPOCH": 66171, "BSTAR": 0.00020684815, "MEAN_MOTION_DOT": 3.473e-05, "MEAN_MOTION_DDOT": 0}, "tle": {"line1": "1 39418U 13066C   25356.07431986  .00003473  00000+0  20685-3 0  9990", "line2": "2 39418  97.4091  45.9992 0021384 202.7866 157.2418 15.11668448661717"}}, "geometry": {"type": "Point", "coordinates": [55.560507742501606, -48.13922740664717]}}, {"type": "Feature", "properties": {"norad_id": 39419, "name": "DUBAISAT-2", "group": "resource", "lat": -29.51166534711057, "lon": -8.351336658725906, "alt_km": 542.4716140916653, "timestamp": "2025-12-23T07:45:09.053620+00:00", "meta": {"OBJECT_NAME": "DUBAISAT-2", "OBJECT_ID": "2013-066D", "EPOCH": "2025-12-22T23:55:26.353056", "MEAN_MOTION": 15.08450598, "ECCENTRICITY": 0.00100357, "INCLINATION": 97.445, "RA_OF_ASC_NODE": 347.0876, "ARG_OF_PERICENTER": 281.1049, "MEAN_ANOMALY": 78.9051, "EPHEMERIS_TYPE": 0, "CLASSIFICATION_TYPE": "U", "NORAD_CAT_ID": 39419, "ELEMENT_SET_NO": 999, "REV_AT_EPOCH": 65981, "BSTAR": 0.00045824765, "MEAN_MOTION_DOT": 7.085e-05, "MEAN_MOTION_DDOT": 0}, "tle": {"line1": "1 39419U 13066D   25356.99683279  .00007085  00000+0  45825-3 0  9992", "line2": "2 39419  97.4450 347.0876 0010035 281.1049  78.9051 15.08450598659810"}}, "geometry": {"type": "Point", "coordinates": [-8.351336658725906, -29.51166534711057]}}, {"type": "Feature", "properties": {"norad_id": 39574, "name": "GPM-CORE", "group": "resource", "lat": 60.86832567363663, "lon": -125.79180093903778, "alt_km": 431.82515475900345, "timestamp": "2025-12-23T07:45:09.053630+00:00", "meta": {"OBJECT_NAME": "GPM-CORE", "OBJECT_ID": "2014-009C", "EPOCH": "2025-12-22T22:06:25.064352", "MEAN_MOTION": 15.4461381, "ECCENTRICITY": 0.00092285, "INCLINATION": 64.9721, "RA_OF_ASC_NODE": 178.5861, "ARG_OF_PERICENTER": 249.4445, "MEAN_ANOMALY": 110.5706, "EPHEMERIS_TYPE": 0, "CLASSIFICATION_TYPE": "U", "NORAD_CAT_ID": 39574, "ELEMENT_SET_NO": 999, "REV_AT_EPOCH": 67058, "BSTAR": 0.00019020853, "MEAN_MOTION_DOT": 8.668e-05, "MEAN_MOTION_DDOT": 0}, "tle": {"line1": "1 39574U 14009C   25356.92112343  .00008668  00000+0  19021-3 0  9991", "line2": "2 39574  64.9721 178.5861 0009228 249.4445 110.5706 15.44613810670587"}}, "geometry": {"type": "Point", "coordinates": [-125.79180093903778, 60.86832567363663]}}]}